NORAD_CAT_ID,OBJECT_NAME,OBJECT_TYPE,EPOCH,MEAN_MOTION,ECCENTRICITY,INCLINATION,RA_OF_ASC_NODE,ARG_OF_PERICENTER,MEAN_ANOMALY,BSTAR,MEAN_MOTION_DOT,MEAN_MOTION_DDOT,TLE_LINE0,TLE_LINE1,TLE_LINE2,SEMIMAJOR_AXIS,PERIOD,APOGEE,PERIGEE,DECAYED
55278.0,STARLINK-5289,PAYLOAD,2023-09-08 02:52:16,14.98340128,0.0003036,70.0006,187.8231,271.7114,88.3697,8.1649e-05,8.82e-06,0.0,0 STARLINK-5289,1 55278U 23010K   23251.11963513  .00000882  00000-0  81649-4 0  9995,2 55278  70.0006 187.8231 0003036 271.7114  88.3697 14.98340128 35635,6950.162,96.106,574.137,569.917,0.0
55278.0,STARLINK-5289,PAYLOAD,2023-09-08 06:04:32,14.98334715,0.0002994,70.0004,187.4871,270.0267,90.0549,2.9726e-05,2.62e-06,0.0,0 STARLINK-5289,1 55278U 23010K   23251.25315928  .00000262  00000-0  29726-4 0  9991,2 55278  70.0004 187.4871 0002994 270.0267  90.0549 14.98334715 35655,6950.178,96.107,574.124,569.962,0.0
55278.0,STARLINK-5289,PAYLOAD,2023-09-09 06:06:33,14.98335481,0.0003076,70.0006,184.962,271.9524,88.1283,7.7524e-05,8.32e-06,0.0,0 STARLINK-5289,1 55278U 23010K   23252.25455604  .00000832  00000-0  77524-4 0  9990,2 55278  70.0006 184.9620 0003076 271.9524  88.1283 14.98335481 35800,6950.176,96.107,574.179,569.903,0.0
55278.0,STARLINK-5289,PAYLOAD,2023-09-09 12:31:06,14.98332565,0.0003013,70.001,184.2885,269.4094,90.672,3.0212e-05,2.68e-06,0.0,0 STARLINK-5289,1 55278U 23010K   23252.52159788  .00000268  00000-0  30212-4 0  9990,2 55278  70.0010 184.2885 0003013 269.4094  90.6720 14.98332565 36148,6950.185,96.107,574.144,569.956,0.0
55278.0,STARLINK-5289,PAYLOAD,2023-09-10 01:20:10,14.98331903,0.0003059,70.0009,182.943,271.0164,89.0645,1.6456e-05,1.03e-06,0.0,0 STARLINK-5289,1 55278U 23010K   23253.05567864  .00000103  00000-0  16456-4 0  9999,2 55278  70.0009 182.9430 0003059 271.0164  89.0645 14.98331903 35922,6950.187,96.107,574.178,569.926,0.0
55278.0,STARLINK-5289,PAYLOAD,2023-09-10 04:32:26,14.98335383,0.0003092,70.0005,182.6053,271.37,88.7105,4.4377e-05,4.37e-06,0.0,0 STARLINK-5289,1 55278U 23010K   23253.18919508  .00000437  00000-0  44377-4 0  9992,2 55278  70.0005 182.6053 0003092 271.3700  88.7105 14.98335383 36241,6950.176,96.107,574.19,569.892,0.0
55278.0,STARLINK-5289,PAYLOAD,2023-09-10 18:57:39,14.98310778,0.0002728,70.0009,181.0912,259.2306,100.8546,0.00017108,1.948e-05,0.0,0 STARLINK-5289,1 55278U 23010K   23253.79004477  .00001948  00000-0  17108-3 0  9998,2 55278  70.0009 181.0912 0002728 259.2306 100.8546 14.98310778 36037,6950.252,96.108,574.013,570.221,0.0
55278.0,STARLINK-5289,PAYLOAD,2023-09-11 04:34:28,14.98324993,0.0002748,70.0004,180.0805,258.9776,101.1074,-3.237e-05,-4.79e-06,0.0,0 STARLINK-5289,1 55278U 23010K   23254.19060451 -.00000479  00000-0 -32370-4 0  9996,2 55278  70.0004 180.0805 0002748 258.9776 101.1074 14.98324993 36091,6950.208,96.107,573.983,570.163,0.0
55278.0,STARLINK-5289,PAYLOAD,2023-09-11 12:35:08,14.98331193,0.0003106,70.0005,179.2386,271.9517,88.1286,-6.3004e-05,-8.45e-06,0.0,0 STARLINK-5289,1 55278U 23010K   23254.52440158 -.00000845  00000-0 -63004-4 0  9994,2 55278  70.0005 179.2386 0003106 271.9517  88.1286 14.98331193 36441,6950.189,96.107,574.213,569.895,0.0
55278.0,STARLINK-5289,PAYLOAD,2023-09-12 01:24:12,14.98335474,0.000304,70.0004,177.8925,268.7131,91.368,5.1561e-05,5.22e-06,0.0,0 STARLINK-5289,1 55278U 23010K   23255.05847558  .00000522  00000-0  51561-4 0  9993,2 55278  70.0004 177.8925 0003040 268.7131  91.3680 14.98335474 36222,6950.176,96.107,574.154,569.928,0.0
55278.0,STARLINK-5289,PAYLOAD,2023-09-12 04:36:28,14.98338273,0.0002846,70.0007,177.5563,266.8356,93.2477,9.134e-05,9.97e-06,0.0,0 STARLINK-5289,1 55278U 23010K   23255.19199235  .00000997  00000-0  91340-4 0  9995,2 55278  70.0007 177.5563 0002846 266.8356  93.2477 14.98338273 36541,6950.167,96.106,574.01,570.054,0.0
55278.0,STARLINK-5289,PAYLOAD,2023-09-12 20:37:49,14.98327297,0.0002923,70.0007,175.873,270.5786,89.5038,7.0753e-05,7.51e-06,0.0,0 STARLINK-5289,1 55278U 23010K   23255.85959883  .00000751  00000-0  70753-4 0  9994,2 55278  70.0007 175.8730 0002923 270.5786  89.5038 14.98327297 36649,6950.201,96.107,574.098,570.035,0.0
55278.0,STARLINK-5289,PAYLOAD,2023-09-13 01:26:13,14.98337402,0.0002982,70.0008,175.3682,270.9761,89.1057,4.1581e-05,4.03e-06,0.0,0 STARLINK-5289,1 55278U 23010K   23256.05987320  .00000403  00000-0  41581-4 0  9995,2 55278  70.0008 175.3682 0002982 270.9761  89.1057 14.98337402 36379,6950.17,96.107,574.108,569.962,0.0
55278.0,STARLINK-5289,PAYLOAD,2023-09-13 04:38:28,14.98336624,0.0002891,70.0008,175.0317,270.9143,89.1684,0.00016469,1.873e-05,0.0,0 STARLINK-5289,1 55278U 23010K   23256.19339015  .00001873  00000-0  16469-3 0  9990,2 55278  70.0008 175.0317 0002891 270.9143  89.1684 14.98336624 36690,6950.172,96.107,574.047,570.028,0.0
55278.0,STARLINK-5289,PAYLOAD,2023-09-13 22:15:59,14.983206,0.0003032,70.0007,173.1803,268.5671,91.5141,-0.00016241,-2.03e-05,0.0,0 STARLINK-5289,1 55278U 23010K   23256.92777058 -.00002030  00000-0 -16241-3 0  9990,2 55278  70.0007 173.1803 0003032 268.5671  91.5141 14.98320600 36800,6950.222,96.108,574.194,569.98,0.0
55278.0,STARLINK-5289,PAYLOAD,2023-09-14 03:04:23,14.98325775,0.0003097,70.0004,172.6755,267.194,92.8864,-0.00012811,-1.621e-05,0.0,0 STARLINK-5289,1 55278U 23010K   23257.12804685 -.00001621  00000-0 -12811-3 0  9994,2 55278  70.0004 172.6755 0003097 267.1940  92.8864 14.98325775 36536,6950.206,96.107,574.223,569.918,0.0
55278.0,STARLINK-5289,PAYLOAD,2023-09-14 04:40:31,14.98323964,0.0003054,70.0006,172.5075,265.9593,94.1217,-0.00014453,-1.817e-05,0.0,0 STARLINK-5289,1 55278U 23010K   23257.19480855 -.00001817  00000-0 -14453-3 0  9991,2 55278  70.0006 172.5075 0003054 265.9593  94.1217 14.98323964 36844,6950.212,96.107,574.199,569.954,0.0
55278.0,STARLINK-5289,PAYLOAD,2023-09-14 20:41:51,14.98333045,0.0003055,70.0003,170.8234,261.1624,98.9189,-2.0028e-05,-3.32e-06,0.0,0 STARLINK-5289,1 55278U 23010K   23257.86239998 -.00000332  00000-0 -20028-4 0  9992,2 55278  70.0003 170.8234 0003055 261.1624  98.9189 14.98333045 36945,6950.183,96.107,574.172,569.925,0.0
55278.0,STARLINK-5289,PAYLOAD,2023-09-15 04:42:31,14.98336475,0.0003032,70.0005,169.983,257.2237,102.8583,0.00010979,1.217e-05,0.0,0 STARLINK-5289,1 55278U 23010K   23258.19619350  .00001217  00000-0  10979-3 0  9997,2 55278  70.0005 169.9830 0003032 257.2237 102.8583 14.98336475 36694,6950.173,96.107,574.145,569.931,0.0
55278.0,STARLINK-5289,PAYLOAD,2023-09-15 17:31:36,14.98322007,0.0003408,70.0007,168.6369,270.7579,89.319,0.00018234,2.083e-05,0.0,0 STARLINK-5289,1 55278U 23010K   23258.73027978  .00002083  00000-0  18234-3 0  9990,2 55278  70.0007 168.6369 0003408 270.7579  89.3190 14.98322007 36773,6950.218,96.108,574.451,569.714,0.0
55278.0,STARLINK-5289,PAYLOAD,2023-09-16 01:32:12,14.98370311,0.0003008,70.0001,167.7941,259.233,100.849,0.00068445,8.092e-05,0.0,0 STARLINK-5289,1 55278U 23010K   23259.06403904  .00008092  00000-0  68445-3 0  9999,2 55278  70.0001 167.7941 0003008 259.2330 100.8490 14.98370311 36825,6950.068,96.104,574.024,569.843,0.0
55278.0,STARLINK-5289,PAYLOAD,2023-09-16 04:44:31,14.98333996,0.0002886,70.0,167.4576,269.16,90.9228,0.00026037,3.015e-05,0.0,0 STARLINK-5289,1 55278U 23010K   23259.19759155  .00003015  00000-0  26037-3 0  9996,2 55278  70.0000 167.4576 0002886 269.1600  90.9228 14.98333996 36846,6950.181,96.107,574.051,570.04,0.0
55278.0,STARLINK-5289,PAYLOAD,2023-09-17 01:34:17,14.98327364,0.0002745,70.0007,165.2679,257.3503,102.7349,-6.4268e-05,-8.6e-06,0.0,0 STARLINK-5289,1 55278U 23010K   23260.06548279 -.00000860  00000-0 -64268-4 0  9993,2 55278  70.0007 165.2679 0002745 257.3503 102.7349 14.98327364 36970,6950.201,96.107,573.974,570.158,0.0
55278.0,STARLINK-5289,PAYLOAD,2023-09-17 03:10:25,14.98331441,0.0002978,70.0003,165.1005,262.9917,97.0904,-6.1045e-05,-8.21e-06,0.0,0 STARLINK-5289,1 55278U 23010K   23260.13224004 -.00000821  00000-0 -61045-4 0  9995,2 55278  70.0003 165.1005 0002978 262.9917  97.0904 14.98331441 37286,6950.188,96.107,574.123,569.984,0.0
55278.0,STARLINK-5289,PAYLOAD,2023-09-17 17:35:37,14.98333962,0.0002962,70.0001,163.5853,266.4968,93.5852,-4.0532e-05,-5.77e-06,0.0,0 STARLINK-5289,1 55278U 23010K   23260.73307629 -.00000577  00000-0 -40532-4 0  9992,2 55278  70.0001 163.5853 0002962 266.4968  93.5852 14.98333962 37075,6950.181,96.107,574.104,569.987,0.0
55278.0,STARLINK-5289,PAYLOAD,2023-09-18 03:12:25,14.98339849,0.0003012,70.0003,162.5759,268.9338,91.1476,4.5555e-05,4.51e-06,0.0,0 STARLINK-5289,1 55278U 23010K   23261.13362889  .00000451  00000-0  45555-4 0  9995,2 55278  70.0003 162.5759 0003012 268.9338  91.1476 14.98339849 37139,6950.162,96.106,574.121,569.934,0.0
55278.0,STARLINK-5289,PAYLOAD,2023-09-18 17:37:38,14.98313242,0.0002653,70.0009,161.0609,266.3779,93.7077,0.0002573,2.977e-05,0.0,0 STARLINK-5289,1 55278U 23010K   23261.73447680  .00002977  00000-0  25730-3 0  9991,2 55278  70.0009 161.0609 0002653 266.3779  93.7077 14.98313242 37228,6950.245,96.108,573.954,570.266,0.0
55278.0,STARLINK-5289,PAYLOAD,2023-09-18 20:49:54,14.9832553,0.0002611,70.0006,160.7239,261.5008,98.5856,2.5088e-05,2.06e-06,0.0,0 STARLINK-5289,1 55278U 23010K   23261.86799754  .00000206  00000-0  25088-4 0  9997,2 55278  70.0006 160.7239 0002611 261.5008  98.5856 14.98325530 37542,6950.207,96.107,573.886,570.257,0.0
55278.0,STARLINK-5289,PAYLOAD,2023-09-19 01:38:18,14.98329431,0.0002878,70.0009,160.2214,267.8297,92.2533,6.2344e-05,6.51e-06,0.0,0 STARLINK-5289,1 55278U 23010K   23262.06827429  .00000651  00000-0  62344-4 0  9991,2 55278  70.0009 160.2214 0002878 267.8297  92.2533 14.98329431 37274,6950.195,96.107,574.06,570.059,0.0
55278.0,STARLINK-5289,PAYLOAD,2023-09-20 03:16:27,14.9833585,0.0002858,70.0006,157.5279,267.9732,92.1099,2.9835e-05,2.63e-06,0.0,0 STARLINK-5289,1 55278U 23010K   23263.13642860  .00000263  00000-0  29835-4 0  9991,2 55278  70.0006 157.5279 0002858 267.9732  92.1099 14.98335850 37430,6950.175,96.107,574.026,570.053,0.0
